[{"OBJECT_NAME":"RADARSAT-2","OBJECT_ID":"2007-061A","EPOCH":"2026-03-09T23:01:05.689632","MEAN_MOTION":14.2996427,"ECCENTRICITY":0.00012561,"INCLINATION":98.582,"RA_OF_ASC_NODE":77.296,"ARG_OF_PERICENTER":84.478,"MEAN_ANOMALY":275.6546,"EPHEMERIS_TYPE":0,"CLASSIFICATION_TYPE":"U","NORAD_CAT_ID":32382,"ELEMENT_SET_NO":999,"REV_AT_EPOCH":95177,"BSTAR":-6.0240739e-5,"MEAN_MOTION_DOT":-1.99e-6,"MEAN_MOTION_DDOT":0},{"OBJECT_NAME":"COSMOS 886 DEB","OBJECT_ID":"1976-126BM","EPOCH":"2026-03-09T12:21:52.549920","MEAN_MOTION":14.36592925,"ECCENTRICITY":0.00638031,"INCLINATION":65.5748,"RA_OF_ASC_NODE":210.1246,"ARG_OF_PERICENTER":330.3117,"MEAN_ANOMALY":100.8151,"EPHEMERIS_TYPE":0,"CLASSIFICATION_TYPE":"U","NORAD_CAT_ID":13943,"ELEMENT_SET_NO":999,"REV_AT_EPOCH":12899,"BSTAR":0.0019968866,"MEAN_MOTION_DOT":5.931e-5,"MEAN_MOTION_DDOT":0}]
